[{"OBJECT_NAME":"LEGION 2","OBJECT_ID":"2024-081B","EPOCH":"2026-03-09T21:44:46.632192","MEAN_MOTION":15.16566591,"ECCENTRICITY":0.00102207,"INCLINATION":97.5068,"RA_OF_ASC_NODE":147.8786,"ARG_OF_PERICENTER":344.1701,"MEAN_ANOMALY":15.9211,"EPHEMERIS_TYPE":0,"CLASSIFICATION_TYPE":"U","NORAD_CAT_ID":59626,"ELEMENT_SET_NO":999,"REV_AT_EPOCH":10249,"BSTAR":0.00029733867,"MEAN_MOTION_DOT":5.743e-5,"MEAN_MOTION_DDOT":0},{"OBJECT_NAME":"3CAT-4","OBJECT_ID":"2024-128B","EPOCH":"2026-03-09T23:24:16.548192","MEAN_MOTION":15.017951,"ECCENTRICITY":0.00535476,"INCLINATION":61.9919,"RA_OF_ASC_NODE":211.2729,"ARG_OF_PERICENTER":115.9438,"MEAN_ANOMALY":244.7184,"EPHEMERIS_TYPE":0,"CLASSIFICATION_TYPE":"U","NORAD_CAT_ID":60236,"ELEMENT_SET_NO":999,"REV_AT_EPOCH":9120,"BSTAR":0.00028129934,"MEAN_MOTION_DOT":3.584e-5,"MEAN_MOTION_DDOT":0}]
